{
    "type":"FeatureCollection",
    "features": [

        {
            "type":"Feature",
            "properties":{
                "name":"Железные Льды",
                "amenity": "Железные Льды"
            },
            "geometry":{
                "coordinates": [165,4061],
                "type":"Point"
            }
        },
        {
            "type":"Feature",
            "properties":{
                "name":"Лагерь во льдах",
                "amenity": "Железные Льды"
            },
            "geometry":{
                "coordinates": [314,4172],
                "type":"Point"
            }
        },
        {
            "type":"Feature",
            "properties":{
                "name":"Смерть Даграка",
                "amenity": "Железные Льды"
            },
            "geometry":{
                "coordinates": [515,4204],
                "type":"Point"
            }
        },


        {
            "type":"Feature",
            "properties":{
                "name":"Ледяные сады",
                "amenity": "Холодные пустоши"
            },
            "geometry":{
                "coordinates": [697,4124],
                "type":"Point"
            }
        },
        {
            "type":"Feature",
            "properties":{
                "name":"Дворец Разрушения",
                "amenity": "Холодные пустоши"
            },
            "geometry":{
                "coordinates": [923,4176],
                "type":"Point"
            }
        },


        {
            "type":"Feature",
            "properties":{
                "name":"Твердыня Осколков",
                "amenity": "Земли осколков"
            },
            "geometry":{
                "coordinates": [1259,4155],
                "type":"Point"
            }
        },
        {
            "type":"Feature",
            "properties":{
                "name":"Шаграт",
                "amenity": "Земли осколков"
            },
            "geometry":{
                "coordinates": [1279,3945],
                "type":"Point"
            }
        },
        {
            "type":"Feature",
            "properties":{
                "name":"Крепость Проклятых",
                "amenity": "Земли осколков"
            },
            "geometry":{
                "coordinates": [1508,4029],
                "type":"Point"
            }
        },


        {
            "type":"Feature",
            "properties":{
                "name":"Хар-Кальдра",
                "amenity": "Железные предгорья"
            },
            "geometry":{
                "coordinates": [324,3910],
                "type":"Point"
            }
        },
        {
            "type":"Feature",
            "properties":{
                "name":"Наггаронд",
                "amenity": "Железные предгорья"
            },
            "geometry":{
                "coordinates": [450,3758],
                "type":"Point"
            }
        },


        {
            "type":"Feature",
            "properties":{
                "name":"Ущелье Ракдо",
                "amenity": "Железные горы"
            },
            "geometry":{
                "coordinates": [226,3754],
                "type":"Point"
            }
        },
        {
            "type":"Feature",
            "properties":{
                "name":"Гора Шроктак",
                "amenity": "Железные горы"
            },
            "geometry":{
                "coordinates": [230,3545],
                "type":"Point"
            }
        },


        {
            "type":"Feature",
            "properties":{
                "name":"Алтарь Великой тьмы",
                "amenity": "Железное побережье"
            },
            "geometry":{
                "coordinates": [172,3895],
                "type":"Point"
            }
        },
        {
            "type":"Feature",
            "properties":{
                "name":"Шпиль эльдар",
                "amenity": "Железное побережье"
            },
            "geometry":{
                "coordinates": [57,3770],
                "type":"Point"
            }
        },
        {
            "type":"Feature",
            "properties":{
                "name":"Шпиль Дракла",
                "amenity": "Железное побережье"
            },
            "geometry":{
                "coordinates": [81,3609],
                "type":"Point"
            }
        },


        {
            "type":"Feature",
            "properties":{
                "name":"Хаг Греф",
                "amenity": "Чёрная пойма"
            },
            "geometry":{
                "coordinates": [552,3636],
                "type":"Point"
            }
        },
        {
            "type":"Feature",
            "properties":{
                "name":"Храм Кейна",
                "amenity": "Чёрная пойма"
            },
            "geometry":{
                "coordinates": [352,3640],
                "type":"Point"
            }
        },
        {
            "type":"Feature",
            "properties":{
                "name":"Крагротская бездна",
                "amenity": "Чёрная пойма"
            },
            "geometry":{
                "coordinates": [410,3537],
                "type":"Point"
            }
        },


        {
            "type":"Feature",
            "properties":{
                "name":"Гронд",
                "amenity": "Коварные вершины"
            },
            "geometry":{
                "coordinates": [633,3886],
                "type":"Point"
            }
        },
        {
            "type":"Feature",
            "properties":{
                "name":"Ашрак",
                "amenity": "Коварные вершины"
            },
            "geometry":{
                "coordinates": [540,3980],
                "type":"Point"
            }
        },
        {
            "type":"Feature",
            "properties":{
                "name":"Ледяная дорога",
                "amenity": "Коварные вершины"
            },
            "geometry":{
                "coordinates": [527,3849],
                "type":"Point"
            }
        },
        {
            "type":"Feature",
            "properties":{
                "name":"Великая Арена",
                "amenity": "Коварные вершины"
            },
            "geometry":{
                "coordinates": [621,3766],
                "type":"Point"
            }
        },


        {
            "type":"Feature",
            "properties":{
                "name":"Кауарк",
                "amenity": "Дорога черепов"
            },
            "geometry":{
                "coordinates": [810,4027],
                "type":"Point"
            }
        },
        {
            "type":"Feature",
            "properties":{
                "name":"Предел Злобы",
                "amenity": "Дорога черепов"
            },
            "geometry":{
                "coordinates": [759,3901],
                "type":"Point"
            }
        },
        {
            "type":"Feature",
            "properties":{
                "name":"Хар Ганет",
                "amenity": "Дорога черепов"
            },
            "geometry":{
                "coordinates": [849,3819],
                "type":"Point"
            }
        },
        {
            "type":"Feature",
            "properties":{
                "name":"Чёрный Столп",
                "amenity": "Дорога черепов"
            },
            "geometry":{
                "coordinates": [860,3919],
                "type":"Point"
            }
        },


        {
            "type":"Feature",
            "properties":{
                "name":"Даргот",
                "amenity": "Мертволесье"
            },
            "geometry":{
                "coordinates": [1003,3962],
                "type":"Point"
            }
        },
        {
            "type":"Feature",
            "properties":{
                "name":"Награр",
                "amenity": "Мертволесье"
            },
            "geometry":{
                "coordinates": [1090,3869],
                "type":"Point"
            }
        },
        {
            "type":"Feature",
            "properties":{
                "name":"Замёрзший город",
                "amenity": "Мертволесье"
            },
            "geometry":{
                "coordinates": [1137,4023],
                "type":"Point"
            }
        },


        {
            "type":"Feature",
            "properties":{
                "name":"Шпиль Роткар",
                "amenity": "Красная пустыня"
            },
            "geometry":{
                "coordinates": [51,3388],
                "type":"Point"
            }
        },
        {
            "type":"Feature",
            "properties":{
                "name":"Шпиль Химерики",
                "amenity": "Красная пустыня"
            },
            "geometry":{
                "coordinates": [116,3257],
                "type":"Point"
            }
        },
        {
            "type":"Feature",
            "properties":{
                "name":"Паучья равнина",
                "amenity": "Красная пустыня"
            },
            "geometry":{
                "coordinates": [161,3126],
                "type":"Point"
            }
        },
        {
            "type":"Feature",
            "properties":{
                "name":"Пик Кларак",
                "amenity": "Красная пустыня"
            },
            "geometry":{
                "coordinates": [67,3002],
                "type":"Point"
            }
        },


        {
            "type":"Feature",
            "properties":{
                "name":"Стораг Кор",
                "amenity": "Обсидиановые горы"
            },
            "geometry":{
                "coordinates": [289,3357],
                "type":"Point"
            }
        },
        {
            "type":"Feature",
            "properties":{
                "name":"Клар Каронд",
                "amenity": "Обсидиановые горы"
            },
            "geometry":{
                "coordinates": [464,3351],
                "type":"Point"
            }
        },
        {
            "type":"Feature",
            "properties":{
                "name":"Поляна Отравы",
                "amenity": "Обсидиановые горы"
            },
            "geometry":{
                "coordinates": [568,3271],
                "type":"Point"
            }
        },
        {
            "type":"Feature",
            "properties":{
                "name":"Круг Разрушения",
                "amenity": "Обсидиановые горы"
            },
            "geometry":{
                "coordinates": [638,3496],
                "type":"Point"
            }
        },


        {
            "type":"Feature",
            "properties":{
                "name":"Столп Хотека",
                "amenity": "Истерзанный берег"
            },
            "geometry":{
                "coordinates": [690,3320],
                "type":"Point"
            }
        },
        {
            "type":"Feature",
            "properties":{
                "name":"Чёрные леса",
                "amenity": "Истерзанный берег"
            },
            "geometry":{
                "coordinates": [829,3348],
                "type":"Point"
            }
        },
        {
            "type":"Feature",
            "properties":{
                "name":"Зловещая поляна",
                "amenity": "Истерзанный берег"
            },
            "geometry":{
                "coordinates": [833,3197],
                "type":"Point"
            }
        },


        {
            "type":"Feature",
            "properties":{
                "name":"Квинтекс",
                "amenity": "Бересклет"
            },
            "geometry":{
                "coordinates": [269,3049],
                "type":"Point"
            }
        },


        {
            "type":"Feature",
            "properties":{
                "name":"Наковальня Ваула",
                "amenity": "Роковые поляны"
            },
            "geometry":{
                "coordinates": [504,3095],
                "type":"Point"
            }
        },
        {
            "type":"Feature",
            "properties":{
                "name":"Ведьмин Чертог",
                "amenity": "Роковые поляны"
            },
            "geometry":{
                "coordinates": [425,2974],
                "type":"Point"
            }
        },
        {
            "type":"Feature",
            "properties":{
                "name":"Храм Аддайота",
                "amenity": "Роковые поляны"
            },
            "geometry":{
                "coordinates": [306,3185],
                "type":"Point"
            }
        },

        
        {
            "type":"Feature",
            "properties":{
                "name":"Мрачный Оплот",
                "amenity": "Мрачный берег"
            },
            "geometry":{
                "coordinates": [359,2852],
                "type":"Point"
            }
        },
        {
            "type":"Feature",
            "properties":{
                "name":"Лес Арнхейма",
                "amenity": "Мрачный берег"
            },
            "geometry":{
                "coordinates": [441,2777],
                "type":"Point"
            }
        },
        {
            "type":"Feature",
            "properties":{
                "name":"Осколок Луны",
                "amenity": "Мрачный берег"
            },
            "geometry":{
                "coordinates": [537,2622],
                "type":"Point"
            }
        },
        {
            "type":"Feature",
            "properties":{
                "name":"Арнхейм",
                "amenity": "Мрачный берег"
            },
            "geometry":{
                "coordinates": [586,2717],
                "type":"Point"
            }
        },


        {
            "type":"Feature",
            "properties":{
                "name":"Святилище Кейна",
                "amenity": "Нагарит"
            },
            "geometry":{
                "coordinates": [1035,3063],
                "type":"Point"
            }
        },
        {
            "type":"Feature",
            "properties":{
                "name":"Тор Анлек",
                "amenity": "Нагарит"
            },
            "geometry":{
                "coordinates": [938,2999],
                "type":"Point"
            }
        },
        {
            "type":"Feature",
            "properties":{
                "name":"Тор Драниль",
                "amenity": "Нагарит"
            },
            "geometry":{
                "coordinates": [797,2894],
                "type":"Point"
            }
        },


        {
            "type":"Feature",
            "properties":{
                "name":"Врата Единорога",
                "amenity": " "
            },
            "geometry":{
                "coordinates": [867,2819],
                "type":"Point"
            }
        },


        {
            "type":"Feature",
            "properties":{
                "name":"Тор Анрок",
                "amenity": "Тиранок"
            },
            "geometry":{
                "coordinates": [713,2738],
                "type":"Point"
            }
        },
        {
            "type":"Feature",
            "properties":{
                "name":"Белый пик",
                "amenity": "Тиранок"
            },
            "geometry":{
                "coordinates": [684,2642],
                "type":"Point"
            }
        },
        {
            "type":"Feature",
            "properties":{
                "name":"Аветир",
                "amenity": "Тиранок"
            },
            "geometry":{
                "coordinates": [748,2524],
                "type":"Point"
            }
        },




        {
            "type":"Feature",
            "properties":{
                "name":"Серебряная башня чародеев",
                "amenity": "Северные пустоши"
            },
            "geometry":{
                "coordinates": [1512,4325],
                "type":"Point"
            }
        },
        {
            "type":"Feature",
            "properties":{
                "name":"Кровавая гора",
                "amenity": "Северные пустоши"
            },
            "geometry":{
                "coordinates": [1685,4259],
                "type":"Point"
            }
        },
        {
            "type":"Feature",
            "properties":{
                "name":"Инферний",
                "amenity": "Северные пустоши"
            },
            "geometry":{
                "coordinates": [1722,4366],
                "type":"Point"
            }
        },
        {
            "type":"Feature",
            "properties":{
                "name":"Дворец Принцев",
                "amenity": "Холодные топи"
            },
            "geometry":{
                "coordinates": [1617,4124],
                "type":"Point"
            }
        },
        {
            "type":"Feature",
            "properties":{
                "name":"Смрадные Катакомбы",
                "amenity": "Холодные топи"
            },
            "geometry":{
                "coordinates": [1765,4137],
                "type":"Point"
            }
        },
        {
            "type":"Feature",
            "properties":{
                "name":"Руины Малофекса",
                "amenity": "Холодные топи"
            },
            "geometry":{
                "coordinates": [1881,4197],
                "type":"Point"
            }
        },
        {
            "type":"Feature",
            "properties":{
                "name":"Зловещие башни",
                "amenity": "Холодные топи"
            },
            "geometry":{
                "coordinates": [1943,4340],
                "type":"Point"
            }
        }
    ]
}